{
  "norad_id": 42951,
  "name": "BSAT-4A",
  "history": [
    {
      "epoch": "2026-03-28T21:50:38.837472Z",
      "apogee_km": 35805.70224524083,
      "perigee_km": 35768.55801811918,
      "latitude_deg": -0.012344306336358147,
      "longitude_deg": 109.80344315954486,
      "height_km": 35798.09157537159,
      "semi_major_axis_km": 42165.267131680004,
      "eccentricity": 0.00044046,
      "inclination_deg": 0.0668,
      "raan_deg": 42.7004,
      "arg_perigee_deg": 349.3971,
      "mean_anomaly_deg": 231.708,
      "mean_motion_rev_day": 1.00269876
    },
    {
      "epoch": "2026-03-28T23:51:50.783328Z",
      "apogee_km": 35805.73567230392,
      "perigee_km": 35768.54589729773,
      "latitude_deg": -0.03427067874880467,
      "longitude_deg": 109.79232100074168,
      "height_km": 35789.15505028893,
      "semi_major_axis_km": 42165.277784800826,
      "eccentricity": 0.000441,
      "inclination_deg": 0.0668,
      "raan_deg": 42.7785,
      "arg_perigee_deg": 349.4296,
      "mean_anomaly_deg": 261.9794,
      "mean_motion_rev_day": 1.00269838
    },
    {
      "epoch": "2026-03-29T23:49:24.076128Z",
      "apogee_km": 35806.11841523198,
      "perigee_km": 35768.39303835931,
      "latitude_deg": -0.03247328560392204,
      "longitude_deg": 109.78328258495448,
      "height_km": 35789.62527453972,
      "semi_major_axis_km": 42165.392726795646,
      "eccentricity": 0.00044735,
      "inclination_deg": 0.0691,
      "raan_deg": 44.6446,
      "arg_perigee_deg": 348.9168,
      "mean_anomaly_deg": 260.9915,
      "mean_motion_rev_day": 1.00269428
    },
    {
      "epoch": "2026-03-30T20:21:35.850240Z",
      "apogee_km": 35804.68075980981,
      "perigee_km": 35767.82570959347,
      "latitude_deg": 0.01047786722098451,
      "longitude_deg": 109.8186777841728,
      "height_km": 35801.467995834864,
      "semi_major_axis_km": 42164.39023470164,
      "eccentricity": 0.00043704,
      "inclination_deg": 0.0711,
      "raan_deg": 46.1165,
      "arg_perigee_deg": 345.9009,
      "mean_anomaly_deg": 211.4408,
      "mean_motion_rev_day": 1.00273004
    },
    {
      "epoch": "2026-03-31T20:19:04.224288Z",
      "apogee_km": 35805.04397101519,
      "perigee_km": 35767.67779299216,
      "latitude_deg": 0.010966218747676228,
      "longitude_deg": 109.82030075067955,
      "height_km": 35801.963370354606,
      "semi_major_axis_km": 42164.49788200368,
      "eccentricity": 0.0004431,
      "inclination_deg": 0.0732,
      "raan_deg": 47.549,
      "arg_perigee_deg": 345.797,
      "mean_anomaly_deg": 210.4684,
      "mean_motion_rev_day": 1.0027262
    },
    {
      "epoch": "2026-04-01T17:35:38.643360Z",
      "apogee_km": 35805.390602654625,
      "perigee_km": 35767.54365398904,
      "latitude_deg": 0.039959818887744414,
      "longitude_deg": 109.85494299818893,
      "height_km": 35804.6349520207,
      "semi_major_axis_km": 42164.60412832184,
      "eccentricity": 0.0004488,
      "inclination_deg": 0.0747,
      "raan_deg": 48.6127,
      "arg_perigee_deg": 345.8144,
      "mean_anomaly_deg": 169.4066,
      "mean_motion_rev_day": 1.00272241
    },
    {
      "epoch": "2026-04-02T18:31:27.585120Z",
      "apogee_km": 35805.79003947735,
      "perigee_km": 35767.39483685095,
      "latitude_deg": 0.029275982818944543,
      "longitude_deg": 109.84101820163465,
      "height_km": 35805.317702228975,
      "semi_major_axis_km": 42164.729438164155,
      "eccentricity": 0.0004553,
      "inclination_deg": 0.0766,
      "raan_deg": 50.0501,
      "arg_perigee_deg": 345.8535,
      "mean_anomaly_deg": 182.9092,
      "mean_motion_rev_day": 1.00271794
    },
    {
      "epoch": "2026-04-02T21:56:52.883808Z",
      "apogee_km": 35805.83398633285,
      "perigee_km": 35767.39069776773,
      "latitude_deg": -0.016235472244468103,
      "longitude_deg": 109.8010138037254,
      "height_km": 35797.32525732985,
      "semi_major_axis_km": 42164.749342050294,
      "eccentricity": 0.00045587,
      "inclination_deg": 0.0769,
      "raan_deg": 50.398,
      "arg_perigee_deg": 345.6966,
      "mean_anomaly_deg": 234.2144,
      "mean_motion_rev_day": 1.00271723
    },
    {
      "epoch": "2026-04-03T20:47:52.085184Z",
      "apogee_km": 35806.16443200351,
      "perigee_km": 35767.29685700881,
      "latitude_deg": -0.004672165991718798,
      "longitude_deg": 109.80851312973242,
      "height_km": 35801.79203381215,
      "semi_major_axis_km": 42164.867644506165,
      "eccentricity": 0.0004609,
      "inclination_deg": 0.0785,
      "raan_deg": 51.6147,
      "arg_perigee_deg": 345.5495,
      "mean_anomaly_deg": 216.8291,
      "mean_motion_rev_day": 1.00271301
    },
    {
      "epoch": "2026-04-03T23:37:02.701920Z",
      "apogee_km": 35806.196017787326,
      "perigee_km": 35767.29891186852,
      "latitude_deg": -0.040614909445989264,
      "longitude_deg": 109.7879905685504,
      "height_km": 35789.862310269564,
      "semi_major_axis_km": 42164.88446482793,
      "eccentricity": 0.00046125,
      "inclination_deg": 0.0786,
      "raan_deg": 51.8098,
      "arg_perigee_deg": 345.4748,
      "mean_anomaly_deg": 259.1187,
      "mean_motion_rev_day": 1.00271241
    },
    {
      "epoch": "2026-04-05T14:32:34.644192Z",
      "apogee_km": 35806.7141697541,
      "perigee_km": 35767.206316939024,
      "latitude_deg": 0.058721527518520035,
      "longitude_deg": 109.87719900680509,
      "height_km": 35797.18838370164,
      "semi_major_axis_km": 42165.097243346565,
      "eccentricity": 0.00046849,
      "inclination_deg": 0.081,
      "raan_deg": 53.759,
      "arg_perigee_deg": 345.5178,
      "mean_anomaly_deg": 122.6029,
      "mean_motion_rev_day": 1.00270482
    },
    {
      "epoch": "2026-04-05T19:12:19.025280Z",
      "apogee_km": 35806.82331348714,
      "perigee_km": 35767.15436309848,
      "latitude_deg": 0.012637054078683692,
      "longitude_deg": 109.81926414513336,
      "height_km": 35805.914884808386,
      "semi_major_axis_km": 42165.12583829281,
      "eccentricity": 0.0004704,
      "inclination_deg": 0.0816,
      "raan_deg": 53.982,
      "arg_perigee_deg": 345.7855,
      "mean_anomaly_deg": 192.2378,
      "mean_motion_rev_day": 1.0027038
    },
    {
      "epoch": "2026-04-06T05:43:38.749152Z",
      "apogee_km": 35805.707184185856,
      "perigee_km": 35766.67313667382,
      "latitude_deg": -0.03375842996661096,
      "longitude_deg": 109.82935585619526,
      "height_km": 35766.2835671582,
      "semi_major_axis_km": 42164.32716042984,
      "eccentricity": 0.00046288,
      "inclination_deg": 0.0822,
      "raan_deg": 54.514,
      "arg_perigee_deg": 343.836,
      "mean_anomaly_deg": 351.9259,
      "mean_motion_rev_day": 1.00273229
    }
  ]
}